NORAD_CAT_ID,OBJECT_NAME,OBJECT_TYPE,EPOCH,MEAN_MOTION,ECCENTRICITY,INCLINATION,RA_OF_ASC_NODE,ARG_OF_PERICENTER,MEAN_ANOMALY,BSTAR,MEAN_MOTION_DOT,MEAN_MOTION_DDOT,TLE_LINE0,TLE_LINE1,TLE_LINE2,SEMIMAJOR_AXIS,PERIOD,APOGEE,PERIGEE,DECAYED
52559.0,STARLINK-3953,PAYLOAD,2024-03-26 09:21:45,15.08827507,0.0001623,53.2157,81.4261,90.7495,269.3683,0.00017722,2.533e-05,0.0,0 STARLINK-3953,1 52559U 22051AC  24086.39011073  .00002533  00000-0  17722-3 0  9995,2 52559  53.2157  81.4261 0001623  90.7495 269.3683 15.08827507103890,6917.919,95.438,540.906,538.661,0.0
52559.0,STARLINK-3953,PAYLOAD,2024-03-27 06:01:46,15.08859168,0.000145,53.2165,77.5611,85.6977,274.4181,0.0012004,0.00018878,0.0,0 STARLINK-3953,1 52559U 22051AC  24087.25123001  .00018878  00000-0  12004-2 0  9992,2 52559  53.2165  77.5611 0001450  85.6977 274.4181 15.08859168104091,6917.822,95.436,540.69,538.684,0.0
52559.0,STARLINK-3953,PAYLOAD,2024-03-27 09:12:32,15.08867345,0.000152,53.2169,76.9667,86.8376,273.279,0.001288,0.00020285,0.0,0 STARLINK-3953,1 52559U 22051AC  24087.38370738  .00020285  00000-0  12880-2 0  9994,2 52559  53.2169  76.9667 0001520  86.8376 273.2790 15.08867345104047,6917.797,95.436,540.713,538.61,0.0
52559.0,STARLINK-3953,PAYLOAD,2024-03-28 05:52:32,15.08867688,0.0001213,53.2165,73.1011,85.6641,274.449,0.00073147,0.00011381,0.0,0 STARLINK-3953,1 52559U 22051AC  24088.24481882  .00011381  00000-0  73147-3 0  9994,2 52559  53.2165  73.1011 0001213  85.6641 274.4490 15.08867688104248,6917.796,95.436,540.5,538.822,0.0
52559.0,STARLINK-3953,PAYLOAD,2024-03-28 09:03:18,15.0887277,0.0001194,53.2166,72.5063,86.5452,273.5677,0.00092318,0.00014448,0.0,0 STARLINK-3953,1 52559U 22051AC  24088.37729634  .00014448  00000-0  92318-3 0  9996,2 52559  53.2166  72.5063 0001194  86.5452 273.5677 15.08872770104196,6917.78,95.435,540.471,538.819,0.0
52559.0,STARLINK-3953,PAYLOAD,2024-03-28 23:21:46,15.08852045,0.0001849,53.2171,69.8281,90.3882,269.7322,0.00057209,8.831e-05,0.0,0 STARLINK-3953,1 52559U 22051AC  24088.97345838  .00008831  00000-0  57209-3 0  9991,2 52559  53.2171  69.8281 0001849  90.3882 269.7322 15.08852045104287,6917.844,95.437,540.988,538.429,0.0
52559.0,STARLINK-3953,PAYLOAD,2024-03-29 05:43:19,15.08850465,0.0001194,53.2169,68.6404,98.331,261.7817,0.00058284,9.003e-05,0.0,0 STARLINK-3953,1 52559U 22051AC  24089.23841739  .00009003  00000-0  58284-3 0  9998,2 52559  53.2169  68.6404 0001194  98.3310 261.7817 15.08850465104392,6917.848,95.437,540.539,538.887,0.0
52559.0,STARLINK-3953,PAYLOAD,2024-03-29 15:15:38,15.08846212,0.0001163,53.217,66.8573,98.0757,262.0367,0.00043935,6.712e-05,0.0,0 STARLINK-3953,1 52559U 22051AC  24089.63585807  .00006712  00000-0  43935-3 0  9994,2 52559  53.2170  66.8573 0001163  98.0757 262.0367 15.08846212104455,6917.861,95.437,540.531,538.922,0.0
52559.0,STARLINK-3953,PAYLOAD,2024-03-29 23:12:33,15.08844187,0.0001721,53.2193,65.3744,112.7076,247.4098,-0.00067277,-0.00010981,0.0,0 STARLINK-3953,1 52559U 22051AC  24089.96705893 -.00010981  00000-0 -67277-3 0  9999,2 52559  53.2193  65.3744 0001721 112.7076 247.4098 15.08844187104437,6917.868,95.437,540.923,538.542,0.0
52559.0,STARLINK-3953,PAYLOAD,2024-03-30 05:34:06,15.08842345,0.0001495,53.2191,64.1849,108.8171,251.2984,-8.4447e-06,-4.22e-06,0.0,0 STARLINK-3953,1 52559U 22051AC  24090.23202121 -.00000422  00000-0 -84447-5 0  9996,2 52559  53.2191  64.1849 0001495 108.8171 251.2984 15.08842345104541,6917.873,95.437,540.772,538.704,0.0
52559.0,STARLINK-3953,PAYLOAD,2024-03-30 07:09:29,15.08842108,0.0001497,53.2191,63.8876,109.1166,250.9988,-1.0411e-05,-4.54e-06,0.0,0 STARLINK-3953,1 52559U 22051AC  24090.29826122 -.00000454  00000-0 -10411-4 0  9999,2 52559  53.2191  63.8876 0001497 109.1166 250.9988 15.08842108104487,6917.874,95.437,540.775,538.703,0.0
52559.0,STARLINK-3953,PAYLOAD,2024-03-30 15:06:25,15.08837737,0.0001521,53.2189,62.3978,92.4499,267.6667,-8.8503e-05,-1.696e-05,0.0,0 STARLINK-3953,1 52559U 22051AC  24090.62946295 -.00001696  00000-0 -88503-4 0  9996,2 52559  53.2189  62.3978 0001521  92.4499 267.6667 15.08837737104539,6917.887,95.438,540.805,538.7,0.0
52559.0,STARLINK-3953,PAYLOAD,2024-03-31 07:00:16,15.08847272,0.0001397,53.218,59.4244,98.2017,261.9134,0.00019,2.738e-05,0.0,0 STARLINK-3953,1 52559U 22051AC  24091.29186162  .00002738  00000-0  19000-3 0  9990,2 52559  53.2180  59.4244 0001397  98.2017 261.9134 15.08847272104704,6917.858,95.437,540.69,538.757,0.0
52559.0,STARLINK-3953,PAYLOAD,2024-03-31 14:57:12,15.08838397,0.0001433,53.2176,57.936,87.9448,272.1708,6.9278e-05,8.15e-06,0.0,0 STARLINK-3953,1 52559U 22051AC  24091.62306594  .00000815  00000-0  69278-4 0  9997,2 52559  53.2176  57.9360 0001433  87.9448 272.1708 15.08838397104759,6917.885,95.438,540.742,538.759,0.0
52559.0,STARLINK-3953,PAYLOAD,2024-04-01 06:51:03,15.08848808,0.0001279,53.2161,54.9614,92.1471,267.9668,0.00021043,3.063e-05,0.0,0 STARLINK-3953,1 52559U 22051AC  24092.28546101  .00003063  00000-0  21043-3 0  9995,2 52559  53.2161  54.9614 0001279  92.1471 267.9668 15.08848808104850,6917.853,95.437,540.603,538.834,0.0
52559.0,STARLINK-3953,PAYLOAD,2024-04-01 14:47:59,15.08842217,0.0001372,53.2197,53.4738,95.5791,264.5358,0.00012522,1.706e-05,0.0,0 STARLINK-3953,1 52559U 22051AC  24092.61666416  .00001706  00000-0  12522-3 0  9998,2 52559  53.2197  53.4738 0001372  95.5791 264.5358 15.08842217104831,6917.874,95.437,540.688,538.789,0.0
52559.0,STARLINK-3953,PAYLOAD,2024-04-01 21:09:32,15.08841839,0.000179,53.2184,52.2863,89.812,270.3078,0.00010707,1.416e-05,0.0,0 STARLINK-3953,1 52559U 22051AC  24092.88162633  .00001416  00000-0  10707-3 0  9990,2 52559  53.2184  52.2863 0001790  89.8120 270.3078 15.08841839104944,6917.875,95.437,540.978,538.501,0.0
52559.0,STARLINK-3953,PAYLOAD,2024-04-02 14:38:47,15.0883793,0.0001477,53.2167,49.0165,82.8638,277.2522,3.0516e-06,-2.39e-06,0.0,0 STARLINK-3953,1 52559U 22051AC  24093.61026712 -.00000239  00000-0  30516-5 0  9994,2 52559  53.2167  49.0165 0001477  82.8638 277.2522 15.08837930104984,6917.887,95.438,540.773,538.73,0.0
52559.0,STARLINK-3953,PAYLOAD,2024-04-02 21:00:19,15.08838159,0.0001615,53.2152,47.8258,85.4943,274.6233,1.6491e-05,-2.6e-07,0.0,0 STARLINK-3953,1 52559U 22051AC  24093.87522749 -.00000026  00000-0  16491-4 0  9992,2 52559  53.2152  47.8258 0001615  85.4943 274.6233 15.08838159105029,6917.886,95.438,540.868,538.634,0.0
52559.0,STARLINK-3953,PAYLOAD,2024-04-03 03:21:52,15.08838483,0.000149,53.2155,46.6356,92.146,267.9703,2.886e-05,1.71e-06,0.0,0 STARLINK-3953,1 52559U 22051AC  24094.14018740  .00000171  00000-0  28860-4 0  9997,2 52559  53.2155  46.6356 0001490  92.1460 267.9703 15.08838483105137,6917.885,95.438,540.781,538.719,0.0
52559.0,STARLINK-3953,PAYLOAD,2024-04-03 06:32:38,15.0883968,0.0001425,53.2184,46.042,93.8162,266.2993,3.2843e-05,2.35e-06,0.0,0 STARLINK-3953,1 52559U 22051AC  24094.27266740  .00000235  00000-0  32843-4 0  9993,2 52559  53.2184  46.0420 0001425  93.8162 266.2993 15.08839680105087,6917.881,95.438,540.732,538.761,0.0
52559.0,STARLINK-3953,PAYLOAD,2024-04-03 20:51:07,15.088356,0.0001449,53.2183,43.3652,97.0154,263.1003,5.9719e-05,6.63e-06,0.0,0 STARLINK-3953,1 52559U 22051AC  24094.86883107  .00000663  00000-0  59719-4 0  9996,2 52559  53.2183  43.3652 0001449  97.0154 263.1003 15.08835600105172,6917.894,95.438,540.761,538.756,0.0
52559.0,STARLINK-3953,PAYLOAD,2024-04-04 06:23:25,15.08843341,0.0001356,53.2191,41.5826,95.1372,264.9775,6.9221e-05,8.14e-06,0.0,0 STARLINK-3953,1 52559U 22051AC  24095.26626684  .00000814  00000-0  69221-4 0  9993,2 52559  53.2191  41.5826 0001356  95.1372 264.9775 15.08843341105303,6917.87,95.437,540.673,538.797,0.0
52559.0,STARLINK-3953,PAYLOAD,2024-04-05 12:35:44,15.08845884,0.0001312,53.2171,35.9338,89.9813,270.133,9.3832e-05,1.206e-05,0.0,0 STARLINK-3953,1 52559U 22051AC  24096.52482479  .00001206  00000-0  93832-4 0  9996,2 52559  53.2171  35.9338 0001312  89.9813 270.1330 15.08845884105499,6917.862,95.437,540.635,538.82,0.0
52559.0,STARLINK-3953,PAYLOAD,2024-04-05 18:57:17,15.0884169,0.0001511,53.2172,34.7485,96.9006,263.2158,9.1492e-05,1.168e-05,0.0,0 STARLINK-3953,1 52559U 22051AC  24096.78978678  .00001168  00000-0  91492-4 0  9992,2 52559  53.2172  34.7485 0001511  96.9006 263.2158 15.08841690105462,6917.875,95.437,540.786,538.695,0.0
52559.0,STARLINK-3953,PAYLOAD,2024-04-06 02:54:13,15.08832458,0.0001536,53.2189,33.261,99.7195,260.3971,-9.5235e-06,-4.4e-06,0.0,0 STARLINK-3953,1 52559U 22051AC  24097.12099530 -.00000440  00000-0 -95235-5 0  9996,2 52559  53.2189  33.2610 0001536  99.7195 260.3971 15.08832458105587,6917.903,95.438,540.831,538.706,0.0
52559.0,STARLINK-3953,PAYLOAD,2024-04-06 12:26:32,15.08840978,0.0001496,53.219,31.4763,98.964,261.1521,-1.7495e-05,-5.66e-06,0.0,0 STARLINK-3953,1 52559U 22051AC  24097.51843170 -.00000566  00000-0 -17495-4 0  9996,2 52559  53.2190  31.4763 0001496  98.9640 261.1521 15.08840978105574,6917.877,95.437,540.777,538.707,0.0
52559.0,STARLINK-3953,PAYLOAD,2024-04-06 20:23:28,15.08787793,0.0001833,53.219,29.9896,105.1084,255.0111,0.00075461,0.00011725,0.0,0 STARLINK-3953,1 52559U 22051AC  24097.84963347  .00011725  00000-0  75461-3 0  9994,2 52559  53.2190  29.9896 0001833 105.1084 255.0111 15.08787793105629,6918.04,95.441,541.173,538.637,0.0
52559.0,STARLINK-3953,PAYLOAD,2024-04-07 05:55:46,15.0884282,0.0001624,53.2199,28.2054,112.0749,248.0416,0.00014312,1.991e-05,0.0,0 STARLINK-3953,1 52559U 22051AC  24098.24706560  .00001991  00000-0  14312-3 0  9993,2 52559  53.2199  28.2054 0001624 112.0749 248.0416 15.08842820105756,6917.872,95.437,540.86,538.613,0.0
52559.0,STARLINK-3953,PAYLOAD,2024-04-07 12:17:19,15.08849247,0.0001436,53.2195,27.0101,80.6835,279.432,-3.7236e-05,-8.81e-06,0.0,0 STARLINK-3953,1 52559U 22051AC  24098.51202555 -.00000881  00000-0 -37236-4 0  9998,2 52559  53.2195  27.0101 0001436  80.6835 279.4320 15.08849247105728,6917.852,95.437,540.711,538.724,0.0
